{
  "type": "FeatureCollection",
  "features": [
    {
      "type": "Feature",
      "properties": {
        "norad_id": 30073,
        "name": "FENGYUN 1C DEB",
        "group": "fengyun-1c-debris",
        "lat": 13.152781679679693,
        "lon": -38.10430253559145,
        "alt_km": 839.8722169303765,
        "timestamp": "2025-12-16T17:51:11.204889+00:00",
        "meta_object_name": "FENGYUN 1C DEB",
        "meta_object_id": "1999-025QA",
        "meta_epoch": "2025-12-15T21:44:21.022368",
        "meta_mean_motion": 14.18688245,
        "meta_eccentricity": 0.00532821,
        "meta_inclination": 99.4115,
        "meta_ra_of_asc_node": 323.2282,
        "meta_arg_of_pericenter": 271.8574,
        "meta_mean_anomaly": 143.0365,
        "meta_ephemeris_type": 0,
        "meta_classification_type": "U",
        "meta_norad_cat_id": 30073,
        "meta_element_set_no": 999,
        "meta_rev_at_epoch": 96970,
        "meta_bstar": 0.0011358993,
        "meta_mean_motion_dot": 2.341e-05,
        "meta_mean_motion_ddot": 0,
        "tle_line1": "1 30073U 99025QA  25349.90579887  .00002341  00000+0  11359-2 0  9994",
        "tle_line2": "2 30073  99.4115 323.2282 0053282 271.8574 143.0365 14.18688245969700"
      },
      "geometry": {
        "type": "Point",
        "coordinates": [
          -38.10430253559145,
          13.152781679679693
        ]
      }
    },
    {
      "type": "Feature",
      "properties": {
        "norad_id": 30074,
        "name": "FENGYUN 1C DEB",
        "group": "fengyun-1c-debris",
        "lat": 42.16169364025666,
        "lon": 48.68550048117723,
        "alt_km": 855.0242315051592,
        "timestamp": "2025-12-16T17:51:11.204899+00:00",
        "meta_object_name": "FENGYUN 1C DEB",
        "meta_object_id": "1999-025QB",
        "meta_epoch": "2025-12-15T11:03:21.906144",
        "meta_mean_motion": 14.12872322,
        "meta_eccentricity": 0.00972202,
        "meta_inclination": 99.1301,
        "meta_ra_of_asc_node": 55.7508,
        "meta_arg_of_pericenter": 144.414,
        "meta_mean_anomaly": 216.3566,
        "meta_ephemeris_type": 0,
        "meta_classification_type": "U",
        "meta_norad_cat_id": 30074,
        "meta_element_set_no": 999,
        "meta_rev_at_epoch": 96700,
        "meta_bstar": 0.0011285527,
        "meta_mean_motion_dot": 2.151e-05,
        "meta_mean_motion_ddot": 0,
        "tle_line1": "1 30074U 99025QB  25349.46067021  .00002151  00000+0  11286-2 0  9996",
        "tle_line2": "2 30074  99.1301  55.7508 0097220 144.4140 216.3566 14.12872322967000"
      },
      "geometry": {
        "type": "Point",
        "coordinates": [
          48.68550048117723,
          42.16169364025666
        ]
      }
    },
    {
      "type": "Feature",
      "properties": {
        "norad_id": 30075,
        "name": "FENGYUN 1C DEB",
        "group": "fengyun-1c-debris",
        "lat": -26.318294125767785,
        "lon": -143.58139224360121,
        "alt_km": 874.3484703704253,
        "timestamp": "2025-12-16T17:51:11.204909+00:00",
        "meta_object_name": "FENGYUN 1C DEB",
        "meta_object_id": "1999-025QC",
        "meta_epoch": "2025-12-15T15:43:54.399072",
        "meta_mean_motion": 13.92534069,
        "meta_eccentricity": 0.00911795,
        "meta_inclination": 99.3616,
        "meta_ra_of_asc_node": 39.9994,
        "meta_arg_of_pericenter": 169.207,
        "meta_mean_anomaly": 343.4221,
        "meta_ephemeris_type": 0,
        "meta_classification_type": "U",
        "meta_norad_cat_id": 30075,
        "meta_element_set_no": 999,
        "meta_rev_at_epoch": 96105,
        "meta_bstar": 0.00010820543,
        "meta_mean_motion_dot": 9.9e-07,
        "meta_mean_motion_ddot": 0,
        "tle_line1": "1 30075U 99025QC  25349.65549073  .00000099  00000+0  10821-3 0  9994",
        "tle_line2": "2 30075  99.3616  39.9994 0091179 169.2070 343.4221 13.92534069961058"
      },
      "geometry": {
        "type": "Point",
        "coordinates": [
          -143.58139224360121,
          -26.318294125767785
        ]
      }
    },
    {
      "type": "Feature",
      "properties": {
        "norad_id": 30076,
        "name": "FENGYUN 1C DEB",
        "group": "fengyun-1c-debris",
        "lat": 25.730740360328642,
        "lon": -27.146505249963518,
        "alt_km": 904.3745012687577,
        "timestamp": "2025-12-16T17:51:11.204920+00:00",
        "meta_object_name": "FENGYUN 1C DEB",
        "meta_object_id": "1999-025QD",
        "meta_epoch": "2025-12-15T22:47:59.466912",
        "meta_mean_motion": 13.76292942,
        "meta_eccentricity": 0.0175745,
        "meta_inclination": 99.2384,
        "meta_ra_of_asc_node": 336.5816,
        "meta_arg_of_pericenter": 85.4387,
        "meta_mean_anomaly": 331.0973,
        "meta_ephemeris_type": 0,
        "meta_classification_type": "U",
        "meta_norad_cat_id": 30076,
        "meta_element_set_no": 999,
        "meta_rev_at_epoch": 94938,
        "meta_bstar": 0.00029912191,
        "meta_mean_motion_dot": 2.85e-06,
        "meta_mean_motion_ddot": 0,
        "tle_line1": "1 30076U 99025QD  25349.94999383  .00000285  00000+0  29912-3 0  9998",
        "tle_line2": "2 30076  99.2384 336.5816 0175745  85.4387 331.0973 13.76292942949383"
      },
      "geometry": {
        "type": "Point",
        "coordinates": [
          -27.146505249963518,
          25.730740360328642
        ]
      }
    },
    {
      "type": "Feature",
      "properties": {
        "norad_id": 30077,
        "name": "FENGYUN 1C DEB",
        "group": "fengyun-1c-debris",
        "lat": 34.408005660492414,
        "lon": 0.21356021013631296,
        "alt_km": 878.805566312446,
        "timestamp": "2025-12-16T17:51:11.204930+00:00",
        "meta_object_name": "FENGYUN 1C DEB",
        "meta_object_id": "1999-025QE",
        "meta_epoch": "2025-12-15T13:29:27.422880",
        "meta_mean_motion": 14.07080327,
        "meta_eccentricity": 0.00204153,
        "meta_inclination": 98.758,
        "meta_ra_of_asc_node": 5.1297,
        "meta_arg_of_pericenter": 255.8072,
        "meta_mean_anomaly": 276.1646,
        "meta_ephemeris_type": 0,
        "meta_classification_type": "U",
        "meta_norad_cat_id": 30077,
        "meta_element_set_no": 999,
        "meta_rev_at_epoch": 97152,
        "meta_bstar": 2.0677109e-05,
        "meta_mean_motion_dot": -8e-08,
        "meta_mean_motion_ddot": 0,
        "tle_line1": "1 30077U 99025QE  25349.56212295 -.00000008  00000+0  20677-4 0  9991",
        "tle_line2": "2 30077  98.7580   5.1297 0020415 255.8072 276.1646 14.07080327971529"
      },
      "geometry": {
        "type": "Point",
        "coordinates": [
          0.21356021013631296,
          34.408005660492414
        ]
      }
    },
    {
      "type": "Feature",
      "properties": {
        "norad_id": 30078,
        "name": "FENGYUN 1C DEB",
        "group": "fengyun-1c-debris",
        "lat": 24.45448754796716,
        "lon": -110.3212506419482,
        "alt_km": 829.1031331414279,
        "timestamp": "2025-12-16T17:51:11.204940+00:00",
        "meta_object_name": "FENGYUN 1C DEB",
        "meta_object_id": "1999-025QF",
        "meta_epoch": "2025-12-15T19:43:58.830816",
        "meta_mean_motion": 14.23153178,
        "meta_eccentricity": 0.005288,
        "meta_inclination": 98.8326,
        "meta_ra_of_asc_node": 64.6994,
        "meta_arg_of_pericenter": 271.4741,
        "meta_mean_anomaly": 204.8193,
        "meta_ephemeris_type": 0,
        "meta_classification_type": "U",
        "meta_norad_cat_id": 30078,
        "meta_element_set_no": 999,
        "meta_rev_at_epoch": 97157,
        "meta_bstar": 0.00096017097,
        "meta_mean_motion_dot": 2.155e-05,
        "meta_mean_motion_ddot": 0,
        "tle_line1": "1 30078U 99025QF  25349.82220869  .00002155  00000+0  96017-3 0  9991",
        "tle_line2": "2 30078  98.8326  64.6994 0052880 271.4741 204.8193 14.23153178971574"
      },
      "geometry": {
        "type": "Point",
        "coordinates": [
          -110.3212506419482,
          24.45448754796716
        ]
      }
    },
    {
      "type": "Feature",
      "properties": {
        "norad_id": 30079,
        "name": "FENGYUN 1C DEB",
        "group": "fengyun-1c-debris",
        "lat": -67.79476609445304,
        "lon": 69.17769000932962,
        "alt_km": 836.7627250365686,
        "timestamp": "2025-12-16T17:51:11.204950+00:00",
        "meta_object_name": "FENGYUN 1C DEB",
        "meta_object_id": "1999-025QG",
        "meta_epoch": "2025-12-15T02:53:31.866144",
        "meta_mean_motion": 14.00795472,
        "meta_eccentricity": 0.00846627,
        "meta_inclination": 99.0349,
        "meta_ra_of_asc_node": 44.6317,
        "meta_arg_of_pericenter": 292.288,
        "meta_mean_anomaly": 96.1201,
        "meta_ephemeris_type": 0,
        "meta_classification_type": "U",
        "meta_norad_cat_id": 30079,
        "meta_element_set_no": 999,
        "meta_rev_at_epoch": 96571,
        "meta_bstar": 0.00016978872,
        "meta_mean_motion_dot": 2.16e-06,
        "meta_mean_motion_ddot": 0,
        "tle_line1": "1 30079U 99025QG  25349.12050771  .00000216  00000+0  16979-3 0  9993",
        "tle_line2": "2 30079  99.0349  44.6317 0084662 292.2880  96.1201 14.00795472965713"
      },
      "geometry": {
        "type": "Point",
        "coordinates": [
          69.17769000932962,
          -67.79476609445304
        ]
      }
    }
  ]
}